NORAD_CAT_ID,OBJECT_NAME,OBJECT_TYPE,EPOCH,MEAN_MOTION,ECCENTRICITY,INCLINATION,RA_OF_ASC_NODE,ARG_OF_PERICENTER,MEAN_ANOMALY,BSTAR,MEAN_MOTION_DOT,MEAN_MOTION_DDOT,TLE_LINE0,TLE_LINE1,TLE_LINE2,SEMIMAJOR_AXIS,PERIOD,APOGEE,PERIGEE,DECAYED
52340.0,STARLINK-3818,PAYLOAD,2024-04-04 09:23:33,15.08843893,0.0001444,53.2153,120.8383,85.7673,274.3484,0.000122,1.654e-05,0.0,0 STARLINK-3818,1 52340U 22045K   24095.39136361  .00001654  00000-0  12200-3 0  9993,2 52340  53.2153 120.8383 0001444  85.7673 274.3484 15.08843893109448,6917.868,95.437,540.732,538.735,0.0
52340.0,STARLINK-3818,PAYLOAD,2024-04-04 18:55:52,15.08839736,0.0001349,53.2153,119.0521,86.7981,273.3165,0.0001094,1.454e-05,0.0,0 STARLINK-3818,1 52340U 22045K   24095.78880665  .00001454  00000-0  10940-3 0  9996,2 52340  53.2153 119.0521 0001349  86.7981 273.3165 15.08839736109502,6917.881,95.438,540.679,538.813,0.0
52340.0,STARLINK-3818,PAYLOAD,2024-04-05 10:49:44,15.08840919,0.0001414,53.2157,116.0777,87.9856,272.1298,0.00010855,1.44e-05,0.0,0 STARLINK-3818,1 52340U 22045K   24096.45120640  .00001440  00000-0  10855-3 0  9991,2 52340  53.2157 116.0777 0001414  87.9856 272.1298 15.08840919109603,6917.878,95.437,540.721,538.764,0.0
52340.0,STARLINK-3818,PAYLOAD,2024-04-05 18:46:39,15.08842294,0.0001418,53.2157,114.591,87.4954,272.62,0.00010491,1.382e-05,0.0,0 STARLINK-3818,1 52340U 22045K   24096.78240511  .00001382  00000-0  10491-3 0  9998,2 52340  53.2157 114.5910 0001418  87.4954 272.6200 15.08842294109654,6917.873,95.437,540.719,538.757,0.0
52340.0,STARLINK-3818,PAYLOAD,2024-04-06 04:18:58,15.08843522,0.0001443,53.2157,112.8069,87.2847,272.831,5.9864e-05,6.65e-06,0.0,0 STARLINK-3818,1 52340U 22045K   24097.17984454  .00000665  00000-0  59864-4 0  9994,2 52340  53.2157 112.8069 0001443  87.2847 272.8310 15.08843522109713,6917.87,95.437,540.733,538.736,0.0
52340.0,STARLINK-3818,PAYLOAD,2024-04-06 07:29:44,15.0884518,0.0001446,53.2159,112.2121,87.7373,272.3785,6.9343e-05,8.16e-06,0.0,0 STARLINK-3818,1 52340U 22045K   24097.31232261  .00000816  00000-0  69343-4 0  9993,2 52340  53.2159 112.2121 0001446  87.7373 272.3785 15.08845180109735,6917.865,95.437,540.73,538.729,0.0
52340.0,STARLINK-3818,PAYLOAD,2024-04-07 07:20:32,15.08836177,0.0001513,53.2165,107.7508,90.7615,269.355,2.3485e-05,8.6e-07,0.0,0 STARLINK-3818,1 52340U 22045K   24098.30593001  .00000086  00000-0  23485-4 0  9991,2 52340  53.2165 107.7508 0001513  90.7615 269.3550 15.08836177109886,6917.892,95.438,540.804,538.71,0.0
52340.0,STARLINK-3818,PAYLOAD,2024-04-08 07:11:18,15.08844902,0.0001504,53.2165,103.2905,90.9782,269.1382,7.2487e-05,8.66e-06,0.0,0 STARLINK-3818,1 52340U 22045K   24099.29952377  .00000866  00000-0  72487-4 0  9997,2 52340  53.2165 103.2905 0001504  90.9782 269.1382 15.08844902110030,6917.865,95.437,540.771,538.69,0.0
52340.0,STARLINK-3818,PAYLOAD,2024-04-08 16:43:37,15.08841365,0.0001391,53.2162,101.507,86.3715,273.7436,2.181e-05,5.9e-07,0.0,0 STARLINK-3818,1 52340U 22045K   24099.69696752  .00000059  00000-0  21810-4 0  9991,2 52340  53.2162 101.5070 0001391  86.3715 273.7436 15.08841365110097,6917.876,95.437,540.703,538.779,0.0
52340.0,STARLINK-3818,PAYLOAD,2024-04-09 00:40:34,15.08832288,0.0001502,53.2169,100.0216,95.6944,264.4219,4.8119e-05,4.78e-06,0.0,0 STARLINK-3818,1 52340U 22045K   24100.02817387  .00000478  00000-0  48119-4 0  9996,2 52340  53.2169 100.0216 0001502  95.6944 264.4219 15.08832288110147,6917.904,95.438,540.808,538.73,0.0
52340.0,STARLINK-3818,PAYLOAD,2024-04-09 03:51:20,15.08831389,0.0001477,53.2169,99.427,96.1171,263.9989,3.576e-05,2.81e-06,0.0,0 STARLINK-3818,1 52340U 22045K   24100.16065525  .00000281  00000-0  35760-4 0  9990,2 52340  53.2169  99.4270 0001477  96.1171 263.9989 15.08831389110168,6917.907,95.438,540.793,538.75,0.0
52340.0,STARLINK-3818,PAYLOAD,2024-04-09 05:26:43,15.08831361,0.0001473,53.217,99.1297,96.0291,264.0869,3.3021e-05,2.38e-06,0.0,0 STARLINK-3818,1 52340U 22045K   24100.22689562  .00000238  00000-0  33021-4 0  9990,2 52340  53.2170  99.1297 0001473  96.0291 264.0869 15.08831361110174,6917.907,95.438,540.791,538.753,0.0
52340.0,STARLINK-3818,PAYLOAD,2024-04-09 22:55:58,15.08838039,0.0001591,53.2182,95.8575,96.0384,264.079,3.5602e-05,2.79e-06,0.0,0 STARLINK-3818,1 52340U 22045K   24100.95553391  .00000279  00000-0  35602-4 0  9992,2 52340  53.2182  95.8575 0001591  96.0384 264.0790 15.08838039110287,6917.886,95.438,540.852,538.651,0.0
52340.0,STARLINK-3818,PAYLOAD,2024-04-10 05:17:30,15.08843836,0.000144,53.2172,94.6684,93.3328,266.7829,6.301e-05,7.15e-06,0.0,0 STARLINK-3818,1 52340U 22045K   24101.22048899  .00000715  00000-0  63010-4 0  9994,2 52340  53.2172  94.6684 0001440  93.3328 266.7829 15.08843836110323,6917.869,95.437,540.73,538.737,0.0
52340.0,STARLINK-3818,PAYLOAD,2024-04-10 10:03:39,15.08845132,0.0001459,53.2173,93.7762,91.6216,268.4943,7.488e-05,9.04e-06,0.0,0 STARLINK-3818,1 52340U 22045K   24101.41920759  .00000904  00000-0  74880-4 0  9996,2 52340  53.2173  93.7762 0001459  91.6216 268.4943 15.08845132110358,6917.865,95.437,540.739,538.72,0.0
52340.0,STARLINK-3818,PAYLOAD,2024-04-11 05:08:18,15.08832712,0.0001361,53.217,90.2059,87.8912,272.2236,4.1419e-05,3.71e-06,0.0,0 STARLINK-3818,1 52340U 22045K   24102.21409839  .00000371  00000-0  41419-4 0  9996,2 52340  53.2170  90.2059 0001361  87.8912 272.2236 15.08832712110479,6917.903,95.438,540.709,538.826,0.0
52340.0,STARLINK-3818,PAYLOAD,2024-04-11 08:19:04,15.08834421,0.0001375,53.2169,89.6111,86.7096,273.4054,5.465e-05,5.82e-06,0.0,0 STARLINK-3818,1 52340U 22045K   24102.34657765  .00000582  00000-0  54650-4 0  9998,2 52340  53.2169  89.6111 0001375  86.7096 273.4054 15.08834421110496,6917.897,95.438,540.714,538.811,0.0
52340.0,STARLINK-3818,PAYLOAD,2024-04-11 22:37:32,15.08836083,0.0001493,53.2175,86.9357,87.7399,272.3764,-4.9632e-06,-3.67e-06,0.0,0 STARLINK-3818,1 52340U 22045K   24102.94274077 -.00000367  00000-0 -49632-5 0  9993,2 52340  53.2175  86.9357 0001493  87.7399 272.3764 15.08836083110585,6917.892,95.438,540.79,538.725,0.0
52340.0,STARLINK-3818,PAYLOAD,2024-04-12 06:34:28,15.08837227,0.0001536,53.2176,85.449,87.4219,272.6949,5.4899e-06,-2.01e-06,0.0,0 STARLINK-3818,1 52340U 22045K   24103.27394074 -.00000201  00000-0  54899-5 0  9997,2 52340  53.2176  85.4490 0001536  87.4219 272.6949 15.08837227110639,6917.889,95.438,540.816,538.691,0.0
52340.0,STARLINK-3818,PAYLOAD,2024-04-12 22:28:19,15.08840999,0.0001476,53.2175,82.4753,88.0788,272.0373,0.00010882,1.444e-05,0.0,0 STARLINK-3818,1 52340U 22045K   24103.93633558  .00001444  00000-0  10882-3 0  9994,2 52340  53.2175  82.4753 0001476  88.0788 272.0373 15.08840999110734,6917.877,95.437,540.763,538.721,0.0
52340.0,STARLINK-3818,PAYLOAD,2024-04-13 04:49:51,15.08849537,0.0001545,53.2177,81.2882,84.1148,276.0021,0.00016721,2.375e-05,0.0,0 STARLINK-3818,1 52340U 22045K   24104.20128863  .00002375  00000-0  16721-3 0  9995,2 52340  53.2177  81.2882 0001545  84.1148 276.0021 15.08849537110775,6917.851,95.437,540.785,538.647,0.0
52340.0,STARLINK-3818,PAYLOAD,2024-04-14 04:40:38,15.08857794,0.0001731,53.2183,76.8322,67.8997,292.2179,-0.0001467,-2.623e-05,0.0,0 STARLINK-3818,1 52340U 22045K   24105.19489222 -.00002623  00000-0 -14670-3 0  9992,2 52340  53.2183  76.8322 0001731  67.8997 292.2179 15.08857794110923,6917.826,95.436,540.888,538.494,0.0
52340.0,STARLINK-3818,PAYLOAD,2024-04-14 07:51:25,15.0884238,0.0001603,53.2184,76.2347,70.9645,289.1521,0.00011483,1.54e-05,0.0,0 STARLINK-3818,1 52340U 22045K   24105.32737450  .00001540  00000-0  11483-3 0  9990,2 52340  53.2184  76.2347 0001603  70.9645 289.1521 15.08842380110941,6917.873,95.437,540.847,538.629,0.0
52340.0,STARLINK-3818,PAYLOAD,2024-04-15 07:42:11,15.08848391,0.0001538,53.2184,71.7669,110.8817,249.234,4.5894e-05,4.43e-06,0.0,0 STARLINK-3818,1 52340U 22045K   24106.32096859  .00000443  00000-0  45894-4 0  9997,2 52340  53.2184  71.7669 0001538 110.8817 249.2340 15.08848391111091,6917.855,95.437,540.784,538.656,0.0
52340.0,STARLINK-3818,PAYLOAD,2024-04-16 04:22:12,15.08844254,0.0001659,53.2185,67.9026,104.7162,255.4014,7.8377e-05,9.6e-06,0.0,0 STARLINK-3818,1 52340U 22045K   24107.18209078  .00000960  00000-0  78377-4 0  9997,2 52340  53.2185  67.9026 0001659 104.7162 255.4014 15.08844254111221,6917.867,95.437,540.88,538.585,0.0
52340.0,STARLINK-3818,PAYLOAD,2024-04-16 13:54:31,15.08846799,0.0001258,53.2166,66.1196,97.7807,262.3328,0.00011014,1.466e-05,0.0,0 STARLINK-3818,1 52340U 22045K   24107.57952760  .00001466  00000-0  11014-3 0  9999,2 52340  53.2166  66.1196 0001258  97.7807 262.3328 15.08846799111288,6917.86,95.437,540.595,538.854,0.0
52340.0,STARLINK-3818,PAYLOAD,2024-04-17 05:48:21,15.0885951,0.0001316,53.2179,63.1472,95.0293,265.085,0.00011394,1.527e-05,0.0,0 STARLINK-3818,1 52340U 22045K   24108.24191871  .00001527  00000-0  11394-3 0  9991,2 52340  53.2179  63.1472 0001316  95.0293 265.0850 15.08859510111387,6917.821,95.436,540.596,538.775,0.0
52340.0,STARLINK-3818,PAYLOAD,2024-04-18 04:03:48,15.08829943,0.0001357,53.2165,58.9835,87.1407,272.974,-0.00010438,-1.948e-05,0.0,0 STARLINK-3818,1 52340U 22045K   24109.16931102 -.00001948  00000-0 -10438-3 0  9999,2 52340  53.2165  58.9835 0001357  87.1407 272.9740 15.08829943111529,6917.911,95.438,540.715,538.837,0.0
52340.0,STARLINK-3818,PAYLOAD,2024-04-18 07:14:34,15.08830611,0.0001364,53.2165,58.3884,88.8329,271.282,-9.7017e-05,-1.831e-05,0.0,0 STARLINK-3818,1 52340U 22045K   24109.30179106 -.00001831  00000-0 -97017-4 0  9993,2 52340  53.2165  58.3884 0001364  88.8329 271.2820 15.08830611111543,6917.909,95.438,540.718,538.83,0.0
52340.0,STARLINK-3818,PAYLOAD,2024-04-19 03:54:33,15.08864164,0.0001345,53.2184,54.5267,98.3789,261.7356,0.00015099,2.117e-05,0.0,0 STARLINK-3818,1 52340U 22045K   24110.16288517  .00002117  00000-0  15099-3 0  9991,2 52340  53.2184  54.5267 0001345  98.3789 261.7356 15.08864164111674,6917.807,95.436,540.602,538.741,0.0
